CCSDS_OMM_VERS = 2.0
CREATION_DATE  = 
ORIGINATOR     = 

OBJECT_NAME    = SL-3 R/B
OBJECT_ID      = 1982-079B
CENTER_NAME    = EARTH
REF_FRAME      = TEME
TIME_SYSTEM    = UTC
MEAN_ELEMENT_THEORY = SGP/SGP4

EPOCH          = 2026-02-19T02:14:46.918176
MEAN_MOTION    = 15.24498110
ECCENTRICITY   = .0024324
INCLINATION    = 81.1450
RA_OF_ASC_NODE = 215.0292
ARG_OF_PERICENTER = 228.1270
MEAN_ANOMALY   = 131.7888

EPHEMERIS_TYPE = 0
CLASSIFICATION_TYPE = U
NORAD_CAT_ID   = 13403
ELEMENT_SET_NO = 999
REV_AT_EPOCH   = 37486
BSTAR          = .20103E-3
MEAN_MOTION_DOT = .5007E-4
MEAN_MOTION_DDOT = 0

CCSDS_OMM_VERS = 2.0
CREATION_DATE  = 
ORIGINATOR     = 

OBJECT_NAME    = SL-14 R/B
OBJECT_ID      = 1982-092B
CENTER_NAME    = EARTH
REF_FRAME      = TEME
TIME_SYSTEM    = UTC
MEAN_ELEMENT_THEORY = SGP/SGP4

EPOCH          = 2026-02-18T19:23:26.712384
MEAN_MOTION    = 14.86645118
ECCENTRICITY   = .0020456
INCLINATION    = 82.5710
RA_OF_ASC_NODE = 159.0551
ARG_OF_PERICENTER = 8.3001
MEAN_ANOMALY   = 108.0218

EPHEMERIS_TYPE = 0
CLASSIFICATION_TYPE = U
NORAD_CAT_ID   = 13553
ELEMENT_SET_NO = 999
REV_AT_EPOCH   = 32612
BSTAR          = .51994E-4
MEAN_MOTION_DOT = .488E-5
MEAN_MOTION_DDOT = 0

CCSDS_OMM_VERS = 2.0
CREATION_DATE  = 
ORIGINATOR     = 

OBJECT_NAME    = SL-3 R/B
OBJECT_ID      = 1983-010B
CENTER_NAME    = EARTH
REF_FRAME      = TEME
TIME_SYSTEM    = UTC
MEAN_ELEMENT_THEORY = SGP/SGP4

EPOCH          = 2026-02-18T23:46:48.527616
MEAN_MOTION    = 15.45642254
ECCENTRICITY   = .0018591
INCLINATION    = 81.1037
RA_OF_ASC_NODE = 25.1578
ARG_OF_PERICENTER = 109.7918
MEAN_ANOMALY   = 250.5333

EPHEMERIS_TYPE = 0
CLASSIFICATION_TYPE = U
NORAD_CAT_ID   = 13819
ELEMENT_SET_NO = 999
REV_AT_EPOCH   = 35505
BSTAR          = .29309E-3
MEAN_MOTION_DOT = .14252E-3
MEAN_MOTION_DDOT = 0

CCSDS_OMM_VERS = 2.0
CREATION_DATE  = 
ORIGINATOR     = 

OBJECT_NAME    = SL-3 R/B
OBJECT_ID      = 1983-075B
CENTER_NAME    = EARTH
REF_FRAME      = TEME
TIME_SYSTEM    = UTC
MEAN_ELEMENT_THEORY = SGP/SGP4

EPOCH          = 2026-02-19T03:30:55.961856
MEAN_MOTION    = 15.37925090
ECCENTRICITY   = .0019927
INCLINATION    = 97.6131
RA_OF_ASC_NODE = 54.0302
ARG_OF_PERICENTER = 299.0413
MEAN_ANOMALY   = 60.8834

EPHEMERIS_TYPE = 0
CLASSIFICATION_TYPE = U
NORAD_CAT_ID   = 14208
ELEMENT_SET_NO = 999
REV_AT_EPOCH   = 32730
BSTAR          = .27794E-3
MEAN_MOTION_DOT = .10347E-3
MEAN_MOTION_DDOT = 0

CCSDS_OMM_VERS = 2.0
CREATION_DATE  = 
ORIGINATOR     = 

OBJECT_NAME    = COSMOS 1536
OBJECT_ID      = 1984-013A
CENTER_NAME    = EARTH
REF_FRAME      = TEME
TIME_SYSTEM    = UTC
MEAN_ELEMENT_THEORY = SGP/SGP4

EPOCH          = 2026-02-19T04:48:30.219264
MEAN_MOTION    = 15.23560469
ECCENTRICITY   = .001389
INCLINATION    = 82.5462
RA_OF_ASC_NODE = 126.2245
ARG_OF_PERICENTER = 353.5622
MEAN_ANOMALY   = 6.5434

EPHEMERIS_TYPE = 0
CLASSIFICATION_TYPE = U
NORAD_CAT_ID   = 14699
ELEMENT_SET_NO = 999
REV_AT_EPOCH   = 26980
BSTAR          = .19802E-3
MEAN_MOTION_DOT = .4777E-4
MEAN_MOTION_DDOT = 0

CCSDS_OMM_VERS = 2.0
CREATION_DATE  = 
ORIGINATOR     = 

OBJECT_NAME    = SL-14 R/B
OBJECT_ID      = 1984-027B
CENTER_NAME    = EARTH
REF_FRAME      = TEME
TIME_SYSTEM    = UTC
MEAN_ELEMENT_THEORY = SGP/SGP4

EPOCH          = 2026-02-19T00:58:24.411648
MEAN_MOTION    = 14.85956477
ECCENTRICITY   = .0018927
INCLINATION    = 82.5385
RA_OF_ASC_NODE = 262.5081
ARG_OF_PERICENTER = 39.0526
MEAN_ANOMALY   = 321.2052

EPHEMERIS_TYPE = 0
CLASSIFICATION_TYPE = U
NORAD_CAT_ID   = 14820
ELEMENT_SET_NO = 999
REV_AT_EPOCH   = 24486
BSTAR          = .40476E-4
MEAN_MOTION_DOT = .379E-5
MEAN_MOTION_DDOT = 0

CCSDS_OMM_VERS = 2.0
CREATION_DATE  = 
ORIGINATOR     = 

OBJECT_NAME    = SL-8 R/B
OBJECT_ID      = 1985-006B
CENTER_NAME    = EARTH
REF_FRAME      = TEME
TIME_SYSTEM    = UTC
MEAN_ELEMENT_THEORY = SGP/SGP4

EPOCH          = 2026-02-19T04:05:30.469920
MEAN_MOTION    = 14.37773526
ECCENTRICITY   = .0019167
INCLINATION    = 74.0454
RA_OF_ASC_NODE = 295.2269
ARG_OF_PERICENTER = 216.9351
MEAN_ANOMALY   = 311.6076

EPHEMERIS_TYPE = 0
CLASSIFICATION_TYPE = U
NORAD_CAT_ID   = 15483
ELEMENT_SET_NO = 999
REV_AT_EPOCH   = 15136
BSTAR          = .64346E-4
MEAN_MOTION_DOT = .168E-5
MEAN_MOTION_DDOT = 0

CCSDS_OMM_VERS = 2.0
CREATION_DATE  = 
ORIGINATOR     = 

OBJECT_NAME    = SL-12 R/B(2)
OBJECT_ID      = 1985-042D
CENTER_NAME    = EARTH
REF_FRAME      = TEME
TIME_SYSTEM    = UTC
MEAN_ELEMENT_THEORY = SGP/SGP4

EPOCH          = 2026-02-19T04:27:04.306464
MEAN_MOTION    = 14.21977122
ECCENTRICITY   = .0034269
INCLINATION    = 71.1080
RA_OF_ASC_NODE = 126.8242
ARG_OF_PERICENTER = 158.1174
MEAN_ANOMALY   = 223.3663

EPHEMERIS_TYPE = 0
CLASSIFICATION_TYPE = U
NORAD_CAT_ID   = 15772
ELEMENT_SET_NO = 999
REV_AT_EPOCH   = 11176
BSTAR          = .80735E-4
MEAN_MOTION_DOT = .132E-5
MEAN_MOTION_DDOT = 0

CCSDS_OMM_VERS = 2.0
CREATION_DATE  = 
ORIGINATOR     = 

OBJECT_NAME    = SL-14 R/B
OBJECT_ID      = 1985-069B
CENTER_NAME    = EARTH
REF_FRAME      = TEME
TIME_SYSTEM    = UTC
MEAN_ELEMENT_THEORY = SGP/SGP4

EPOCH          = 2026-02-19T00:44:36.888864
MEAN_MOTION    = 14.86409664
ECCENTRICITY   = .0017211
INCLINATION    = 82.5250
RA_OF_ASC_NODE = 42.4801
ARG_OF_PERICENTER = 253.0478
MEAN_ANOMALY   = 106.8853

EPHEMERIS_TYPE = 0
CLASSIFICATION_TYPE = U
NORAD_CAT_ID   = 15945
ELEMENT_SET_NO = 999
REV_AT_EPOCH   = 17006
BSTAR          = .52396E-4
MEAN_MOTION_DOT = .487E-5
MEAN_MOTION_DDOT = 0

CCSDS_OMM_VERS = 2.0
CREATION_DATE  = 
ORIGINATOR     = 

OBJECT_NAME    = SL-16 R/B
OBJECT_ID      = 1985-097B
CENTER_NAME    = EARTH
REF_FRAME      = TEME
TIME_SYSTEM    = UTC
MEAN_ELEMENT_THEORY = SGP/SGP4

EPOCH          = 2026-02-18T18:55:50.755296
MEAN_MOTION    = 14.16594339
ECCENTRICITY   = .0009712
INCLINATION    = 71.0027
RA_OF_ASC_NODE = 180.3424
ARG_OF_PERICENTER = 281.3309
MEAN_ANOMALY   = 184.8908

EPHEMERIS_TYPE = 0
CLASSIFICATION_TYPE = U
NORAD_CAT_ID   = 16182
ELEMENT_SET_NO = 999
REV_AT_EPOCH   = 8455
BSTAR          = .18853E-4
MEAN_MOTION_DOT = -.1E-6
MEAN_MOTION_DDOT = 0

CCSDS_OMM_VERS = 2.0
CREATION_DATE  = 
ORIGINATOR     = 

OBJECT_NAME    = SL-14 R/B
OBJECT_ID      = 1986-006B
CENTER_NAME    = EARTH
REF_FRAME      = TEME
TIME_SYSTEM    = UTC
MEAN_ELEMENT_THEORY = SGP/SGP4

EPOCH          = 2026-02-19T01:55:32.729088
MEAN_MOTION    = 14.86789341
ECCENTRICITY   = .0076007
INCLINATION    = 82.5248
RA_OF_ASC_NODE = 277.2550
ARG_OF_PERICENTER = 335.5041
MEAN_ANOMALY   = 24.2571

EPHEMERIS_TYPE = 0
CLASSIFICATION_TYPE = U
NORAD_CAT_ID   = 16496
ELEMENT_SET_NO = 999
REV_AT_EPOCH   = 14644
BSTAR          = .56496E-4
MEAN_MOTION_DOT = .556E-5
MEAN_MOTION_DDOT = 0

CCSDS_OMM_VERS = 2.0
CREATION_DATE  = 
ORIGINATOR     = 

OBJECT_NAME    = COSMOS 1743
OBJECT_ID      = 1986-034A
CENTER_NAME    = EARTH
REF_FRAME      = TEME
TIME_SYSTEM    = UTC
MEAN_ELEMENT_THEORY = SGP/SGP4

EPOCH          = 2026-02-19T01:52:36.465312
MEAN_MOTION    = 15.57149558
ECCENTRICITY   = .0004092
INCLINATION    = 82.5304
RA_OF_ASC_NODE = 93.3434
ARG_OF_PERICENTER = 21.5144
MEAN_ANOMALY   = 338.6282

EPHEMERIS_TYPE = 0
CLASSIFICATION_TYPE = U
NORAD_CAT_ID   = 16719
ELEMENT_SET_NO = 999
REV_AT_EPOCH   = 17735
BSTAR          = .39865E-3
MEAN_MOTION_DOT = .29023E-3
MEAN_MOTION_DDOT = 0

